KUIPER-00604            
1 69769U 26151G   26192.75002315 -.00000396  00000+0 -14419-7 0  9990
2 69769  51.8798 196.9789 0002733  97.0033 340.9546 15.38191990  2440
KUIPER-00609            
1 69770U 26151H   26192.75002315 -.00000316  00000+0  20698-5 0  9997
2 69770  51.8800 196.9487 0001030  42.2779  50.1240 15.38589571  1300
KUIPER-00611            
1 69771U 26151J   26192.75002315 -.00001603  00000+0 -31401-4 0  9992
2 69771  51.8803 196.9596 0001631  93.8142 351.3937 15.38401303  1303
KUIPER-00612            
1 69772U 26151K   26192.75002315 -.00000634  00000+0 -63155-5 0  9998
2 69772  51.8792 197.0017 0003739 105.2641 322.6052 15.37893687  1302
KUIPER-00614            
1 69773U 26151L   26192.75002315 -.00000612  00000+0 -56853-5 0  9992
2 69773  51.8802 196.9833 0002745 112.3848 322.6494 15.38105845  2026
KUIPER-00615            
1 69774U 26151M   26192.75002315 -.00001862  00000+0 -39683-4 0  9992
2 69774  51.8774 197.0536 0006160 135.7462 267.7714 15.37187155  1300
KUIPER-00616            
1 69775U 26151N   26192.75002315 -.00000481  00000+0 -22088-5 0  9991
2 69775  51.8784 196.9792 0003155 111.5534 327.9983 15.38344081  1308
KUIPER-00617            
1 69776U 26151P   26192.75002315 -.00000432  00000+0 -10096-5 0  9994
2 69776  51.8796 197.0086 0004078 124.1328 299.6967 15.37730117  1301
KUIPER-00619            
1 69777U 26151Q   26192.75002315 -.00000361  00000+0  90099-6 0  9997
2 69777  51.8802 196.9537 0001682  54.0411  35.0067 15.38490743  1516
KUIPER-00621            
1 69778U 26151R   26192.75002315 -.00001327  00000+0 -24330-4 0  9995
2 69778  51.8794 196.9743 0002008 102.8386 338.2288 15.38280263  2262
KUIPER-00622            
1 69779U 26151S   26192.75002315 -.00002129  00000+0 -47284-4 0  9990
2 69779  51.8734 197.0689 0006887 137.0194 259.9023 15.36947085  2125
KUIPER-00623            
1 69780U 26151T   26192.75002315 -.00001648  00000+0 -33685-4 0  9997
2 69780  51.8779 197.0323 0005067 123.7241 289.9985 15.37388511  2242
KUIPER-00626            
1 69781U 26151U   26192.75002315 -.00011014  00000+0 -30211-3 0  9997
2 69781  51.8716 197.1372 0010092 154.2734 208.7656 15.35616318  2486
KUIPER-00627            
1 69782U 26151V   26192.75002315 -.00006435  00000+0 -17235-3 0  9990
2 69782  51.8689 197.1548 0011300 156.6932 197.6543 15.35499664  1304
KUIPER-00629            
1 69783U 26151W   26192.75002315 -.00003122  00000+0 -74385-4 0  9991
2 69783  51.8745 197.0732 0007403 136.4602 258.1096 15.36923638  1817
KUIPER-00631            
1 69784U 26151X   26192.75002315 -.00003753  00000+0 -92276-4 0  9991
2 69784  51.8712 197.0895 0007943 143.9508 242.7903 15.36695196  1304
KUIPER-00634            
1 69785U 26151Y   26192.75002315 -.00002036  00000+0 -43690-4 0  9991
2 69785  51.8771 197.0172 0003743 124.6119 296.9399 15.37686963  1309
KUIPER-00639            
1 69786U 26151Z   26192.75002315 -.00009693  00000+0 -26190-3 0  9993
2 69786  51.8687 197.1213 0009820 150.6954 220.2696 15.35923197  1302
KUIPER-00641            
1 69787U 26151AA  26192.75002315 -.00009889  00000+0 -27357-3 0  9997
2 69787  51.8676 197.1552 0011028 151.2432 202.6865 15.35208938  2120
KUIPER-00644            
1 69788U 26151AB  26192.75002315 -.00004212  00000+0 -10549-3 0  9998
2 69788  51.8737 197.1021 0008634 146.5480 233.9168 15.36512295  2420
KUIPER-00646            
1 69789U 26151AC  26192.75002315  .00008287  00000+0  24328-3 0  9993
2 69789  51.8700 197.1184 0009984 151.4538 220.8883 15.35982612  1318
KUIPER-00647            
1 69790U 26151AD  26192.75002315 -.00004416  00000+0 -11438-3 0  9995
2 69790  51.8663 197.1475 0010797 152.6182 205.0404 15.35608995  2261
KUIPER-00662            
1 69791U 26151AE  26192.75002315 -.00003894  00000+0 -96396-4 0  9992
2 69791  51.8725 197.0956 0008588 141.4756 242.2309 15.36607852  1305
LINK                    
1 69792U 26152A   26192.17315530  .00106023  00000+0  95610-3 0  9999
2 69792  20.5839 358.3338 0023011 299.7734  60.0425 15.66050615  1220
2026-152B               
1 69793U 26152B   26192.75072740  .00036280  00000+0  34509-3 0  9994
2 69793  20.5985 353.9839 0022203 305.4230  54.4143 15.64540996  1316
ISS OBJECT YJ           
1 69794U 98067YJ  26192.76198855  .00018672  00000+0  33540-3 0  9995
2 69794  51.6302 178.4184 0007800 299.0718  60.9489 15.49887486  1465
ISS OBJECT YK           
1 69795U 98067YK  26192.75961408  .00031900  00000+0  55527-3 0  9995
2 69795  51.6304 178.4030 0006870 308.5055  51.5317 15.50455654  1460
ISS OBJECT YL           
1 69796U 98067YL  26192.76010642  .00025214  00000+0  44343-3 0  9997
2 69796  51.6301 178.4063 0008916 300.8840  59.1271 15.50277870  1458
ISS OBJECT YM           
1 69797U 98067YM  26192.43763917  .00026613  00000+0  46707-3 0  9992
2 69797  51.6301 180.0030 0009672 290.7252  69.2700 15.50297493  1391
ISS OBJECT YN           
1 69798U 98067YN  26192.43790071  .00017916  00000+0  31896-3 0  9993
2 69798  51.6303 180.0044 0009267 301.7399  58.2686 15.50160477  1419
