OBJECT_NAME,OBJECT_ID,EPOCH,MEAN_MOTION,ECCENTRICITY,INCLINATION,RA_OF_ASC_NODE,ARG_OF_PERICENTER,MEAN_ANOMALY,EPHEMERIS_TYPE,CLASSIFICATION_TYPE,NORAD_CAT_ID,ELEMENT_SET_NO,REV_AT_EPOCH,BSTAR,MEAN_MOTION_DOT,MEAN_MOTION_DDOT
KUIPER-00604,2026-151G,2026-07-11T18:00:02.000160,15.38191990,.00027338,51.8798,196.9789,97.0033,340.9546,0,U,69769,999,244,-.14419E-7,-.396E-5,0
KUIPER-00609,2026-151H,2026-07-11T18:00:02.000160,15.38589571,.00010301,51.8800,196.9487,42.2779,50.1240,0,U,69770,999,130,.2069831E-5,-.316E-5,0
KUIPER-00611,2026-151J,2026-07-11T18:00:02.000160,15.38401303,.00016316,51.8803,196.9596,93.8142,351.3937,0,U,69771,999,130,-.31401381E-4,-.1603E-4,0
KUIPER-00612,2026-151K,2026-07-11T18:00:02.000160,15.37893687,.0003739,51.8792,197.0017,105.2641,322.6052,0,U,69772,999,130,-.6315488E-5,-.634E-5,0
KUIPER-00614,2026-151L,2026-07-11T18:00:02.000160,15.38105845,.00027456,51.8802,196.9833,112.3848,322.6494,0,U,69773,999,202,-.5685317E-5,-.612E-5,0
KUIPER-00615,2026-151M,2026-07-11T18:00:02.000160,15.37187155,.00061602,51.8774,197.0536,135.7462,267.7714,0,U,69774,999,130,-.39683089E-4,-.1862E-4,0
KUIPER-00616,2026-151N,2026-07-11T18:00:02.000160,15.38344081,.00031558,51.8784,196.9792,111.5534,327.9983,0,U,69775,999,130,-.2208837E-5,-.481E-5,0
KUIPER-00617,2026-151P,2026-07-11T18:00:02.000160,15.37730117,.00040781,51.8796,197.0086,124.1328,299.6967,0,U,69776,999,130,-.1009645E-5,-.432E-5,0
KUIPER-00619,2026-151Q,2026-07-11T18:00:02.000160,15.38490743,.00016826,51.8802,196.9537,54.0411,35.0067,0,U,69777,999,151,.900994E-6,-.361E-5,0
KUIPER-00621,2026-151R,2026-07-11T18:00:02.000160,15.38280263,.00020084,51.8794,196.9743,102.8386,338.2288,0,U,69778,999,226,-.24329716E-4,-.1327E-4,0
KUIPER-00622,2026-151S,2026-07-11T18:00:02.000160,15.36947085,.00068875,51.8734,197.0689,137.0194,259.9023,0,U,69779,999,212,-.47283975E-4,-.2129E-4,0
KUIPER-00623,2026-151T,2026-07-11T18:00:02.000160,15.37388511,.0005067,51.8779,197.0323,123.7241,289.9985,0,U,69780,999,224,-.33685051E-4,-.1648E-4,0
KUIPER-00626,2026-151U,2026-07-11T18:00:02.000160,15.35616318,.00100924,51.8716,197.1372,154.2734,208.7656,0,U,69781,999,248,-.30211491E-3,-.11014E-3,0
KUIPER-00627,2026-151V,2026-07-11T18:00:02.000160,15.35499664,.00113003,51.8689,197.1548,156.6932,197.6543,0,U,69782,999,130,-.17235217E-3,-.6435E-4,0
KUIPER-00629,2026-151W,2026-07-11T18:00:02.000160,15.36923638,.00074035,51.8745,197.0732,136.4602,258.1096,0,U,69783,999,181,-.74385196E-4,-.3122E-4,0
KUIPER-00631,2026-151X,2026-07-11T18:00:02.000160,15.36695196,.00079436,51.8712,197.0895,143.9508,242.7903,0,U,69784,999,130,-.92276218E-4,-.3753E-4,0
KUIPER-00634,2026-151Y,2026-07-11T18:00:02.000160,15.37686963,.00037437,51.8771,197.0172,124.6119,296.9399,0,U,69785,999,130,-.43689853E-4,-.2036E-4,0
KUIPER-00639,2026-151Z,2026-07-11T18:00:02.000160,15.35923197,.00098206,51.8687,197.1213,150.6954,220.2696,0,U,69786,999,130,-.26190315E-3,-.9693E-4,0
KUIPER-00641,2026-151AA,2026-07-11T18:00:02.000160,15.35208938,.00110287,51.8676,197.1552,151.2432,202.6865,0,U,69787,999,212,-.27356615E-3,-.9889E-4,0
KUIPER-00644,2026-151AB,2026-07-11T18:00:02.000160,15.36512295,.00086347,51.8737,197.1021,146.5480,233.9168,0,U,69788,999,242,-.10548805E-3,-.4212E-4,0
KUIPER-00646,2026-151AC,2026-07-11T18:00:02.000160,15.35982612,.0009984,51.8700,197.1184,151.4538,220.8883,0,U,69789,999,131,.24327825E-3,.8287E-4,0
KUIPER-00647,2026-151AD,2026-07-11T18:00:02.000160,15.35608995,.0010797,51.8663,197.1475,152.6182,205.0404,0,U,69790,999,226,-.11437998E-3,-.4416E-4,0
KUIPER-00662,2026-151AE,2026-07-11T18:00:02.000160,15.36607852,.00085886,51.8725,197.0956,141.4756,242.2309,0,U,69791,999,130,-.9639611E-4,-.3894E-4,0
LINK,2026-152A,2026-07-11T04:09:20.617920,15.66050615,.00230113,20.5839,358.3338,299.7734,60.0425,0,U,69792,999,122,.95609871E-3,.106023E-2,0
2026-152B,2026-152B,2026-07-11T18:01:02.847360,15.64540996,.00222036,20.5985,353.9839,305.4230,54.4143,0,U,69793,999,131,.34508896E-3,.3628E-3,0
ISS OBJECT YJ,1998-067YJ,2026-07-11T18:17:15.810720,15.49887486,.00078003,51.6302,178.4184,299.0718,60.9489,0,U,69794,999,146,.3354028E-3,.18672E-3,0
ISS OBJECT YK,1998-067YK,2026-07-11T18:13:50.656512,15.50455654,.00068705,51.6304,178.4030,308.5055,51.5317,0,U,69795,999,146,.55527072E-3,.319E-3,0
ISS OBJECT YL,1998-067YL,2026-07-11T18:14:33.194688,15.50277870,.00089166,51.6301,178.4063,300.8840,59.1271,0,U,69796,999,145,.44342766E-3,.25214E-3,0
ISS OBJECT YM,1998-067YM,2026-07-11T10:30:12.024288,15.50297493,.00096728,51.6301,180.0030,290.7252,69.2700,0,U,69797,999,139,.46707037E-3,.26613E-3,0
ISS OBJECT YN,1998-067YN,2026-07-11T10:30:34.621344,15.50160477,.00092672,51.6303,180.0044,301.7399,58.2686,0,U,69798,999,141,.31896468E-3,.17916E-3,0
